STARLINK-33991          
1 64122U 25110AC  25170.29615025  .00054992  00000+0  98954-3 0  9995
2 64122  53.1604 179.5740 0000991  95.9448 264.1674 15.49318417  5410
STARLINK-11727 [DTC]    
1 64123U 25111A   25170.26030640  .00126112  00000+0  71570-3 0  9997
2 64123  42.9981 123.0596 0001789 262.7001  97.3666 15.77892464  5195
STARLINK-11724 [DTC]    
1 64124U 25111B   25170.57193728  .00338243  00000+0  18622-2 0  9997
2 64124  42.9972 121.0912 0000949 348.2479  11.8368 15.77953759  5243
STARLINK-11725 [DTC]    
1 64125U 25111C   25170.56705346  .00291958  00000+0  16112-2 0  9995
2 64125  42.9985 121.0526 0001632 297.3793  62.6911 15.78029223  5241
STARLINK-11717 [DTC]    
1 64126U 25111D   25169.98759168  .00208879  00000+0  11701-2 0  9990
2 64126  42.9980 124.4441 0001223 234.3125 125.7631 15.77930156  5106
STARLINK-11721 [DTC]    
1 64127U 25111E   25170.24565656  .00299529  00000+0  16524-2 0  9999
2 64127  42.9978 122.9397 0001612 274.5505  85.5181 15.78016023  5198
STARLINK-11722 [DTC]    
1 64128U 25111F   25170.55240898  .00276157  00000+0  15315-2 0  9991
2 64128  42.9988 120.9336 0002681 281.3163  78.7406 15.77962618  5197
STARLINK-11679 [DTC]    
1 64129U 25111G   25170.23103004  .00250890  00000+0  13965-2 0  9999
2 64129  42.9990 122.8234 0002437 277.2710  82.7883 15.77951699  5191
STARLINK-11735 [DTC]    
1 64130U 25111H   25170.22614960  .00254798  00000+0  14178-2 0  9996
2 64130  42.9993 122.7829 0002566 276.6548  83.4030 15.77947569  5047
STARLINK-11720 [DTC]    
1 64131U 25111J   25170.22127148  .00235005  00000+0  13106-2 0  9994
2 64131  42.9993 122.7425 0002450 285.5349  74.5250 15.77953597  5144
STARLINK-11718 [DTC]    
1 64132U 25111K   25170.58335648 -.00175524  00000+0 -10225-2 0  9990
2 64132  42.9999 120.2588 0001710 263.9303 106.3545 15.77944842  5326
STARLINK-11716 [DTC]    
1 64133U 25111L   25170.26993303  .00187452  00000+0  10535-2 0  9999
2 64133  42.9989 122.2368 0001684 270.1144  89.9533 15.77919698  5253
STARLINK-11714 [DTC]    
1 64134U 25111M   25170.21639569  .00371369  00000+0  20332-2 0  9994
2 64134  42.9991 122.7028 0001882 301.2467  58.8219 15.77988168  5185
STARLINK-11712 [DTC]    
1 64135U 25111N   25170.21151582  .00084411  00000+0  48267-3 0  9996
2 64135  42.9991 122.6644 0001303 279.3427  80.7296 15.77877812  5191
STARLINK-34254          
1 64136U 25111P   25170.58335648 -.00019823  00000+0 -46879-3 0  9998
2 64136  43.0001 124.2137 0001360 271.2296 298.2642 15.40682061  5279
STARLINK-34230          
1 64137U 25111Q   25170.58335648 -.01885403  00000+0 -54532-1 0  9998
2 64137  43.0004 124.0095 0001541 281.9764  12.7040 15.38285373  5276
STARLINK-34129          
1 64138U 25111R   25170.58335648 -.01940996  00000+0 -61994-1 0  9998
2 64138  43.0006 124.1038 0001675 279.5276 336.8388 15.35349619  5328
STARLINK-34212          
1 64139U 25111S   25170.58335648 -.01600362  00000+0 -40220-1 0  9998
2 64139  43.0000 123.8942 0001596 268.2360  73.8443 15.42484478  5279
STARLINK-34149          
1 64140U 25111T   25170.58335648 -.01877894  00000+0 -50542-1 0  9994
2 64140  43.0005 123.9341 0001495 285.8635  39.5949 15.40441224  5278
STARLINK-34054          
1 64141U 25111U   25170.58335648 -.01878317  00000+0 -49330-1 0  9999
2 64141  42.9993 123.9112 0001537 291.4767  43.3143 15.41172586  5277
STARLINK-34195          
1 64142U 25111V   25170.58335648 -.01606704  00000+0 -39190-1 0  9992
2 64142  43.0002 123.8580 0001616 265.3890  91.2926 15.43376675  5272
STARLINK-34133          
1 64143U 25111W   25170.58335648 -.01561884  00000+0 -37590-1 0  9994
2 64143  42.9999 123.8440 0001589 270.0816  92.7296 15.43676851  5276
STARLINK-34181          
1 64144U 25111X   25170.58335648 -.01874977  00000+0 -51986-1 0  9990
2 64144  42.9996 123.9432 0001469 286.7920  34.6937 15.39544270  5274
STARLINK-34186          
1 64145U 25111Y   25170.58335648 -.01934834  00000+0 -57950-1 0  9997
2 64145  43.0001 124.0036 0001672 285.1003  11.7824 15.37313350  5279
STARLINK-34314          
1 64146U 25112A   25170.59994697  .00031409  00000+0  80358-3 0  9998
2 64146  97.6035 220.0634 0000607  83.3576 276.7738 15.39368818  3583
STARLINK-33926          
1 64147U 25112B   25170.58335648  .00083648  00000+0  21265-2 0  9996
2 64147  97.6035 220.1239 0001859  90.1543 358.0611 15.39301325  4806
STARLINK-34213          
1 64148U 25112C   25170.58335648  .00071289  00000+0  18153-2 0  9997
2 64148  97.6038 220.0861 0001321  85.3861 272.8482 15.39306320  4802
STARLINK-33924          
1 64149U 25112D   25170.58335648 -.01343536  00000+0 -30559-1 0  9991
2 64149  97.6039 220.1858 0001887  89.1693 125.7174 15.46064999  4808
STARLINK-34209          
1 64150U 25112E   25170.13697063  .00016649  00000+0  42809-3 0  9998
2 64150  97.6035 219.6025 0001378  90.3743 269.7659 15.39348824  3518
STARLINK-34338          
1 64151U 25112F   25170.58335648  .00074712  00000+0  19010-2 0  9998
2 64151  97.6035 220.1034 0001479 126.6018 275.6923 15.39314254  4797
STARLINK-34348          
1 64152U 25112G   25170.58335648 -.02940685  00000+0 -75149-1 0  9998
2 64152  97.6036 220.1492 0003106  97.3239  31.1223 15.43103727  4801
STARLINK-34345          
1 64153U 25112H   25170.29875356  .00053556  00000+0  97931-3 0  9995
2 64153  97.6036 219.8510 0001104  85.2916 274.8460 15.49201463  3543
STARLINK-33945          
1 64154U 25112J   25170.13878406  .00017341  00000+0  44572-3 0  9993
2 64154  97.6035 219.7648 0001894  90.3098 269.8364 15.39349660  3524
STARLINK-34346          
1 64155U 25112K   25170.58335648  .00075900  00000+0  19327-2 0  9993
2 64155  97.6038 220.2502 0002083  81.4941 281.6135 15.39284778  4801
STARLINK-34277          
1 64156U 25112L   25170.10404319  .00045972  00000+0  84135-3 0  9990
2 64156  97.6038 219.8099 0001515  92.2858 267.8566 15.49212546  3520
STARLINK-34343          
1 64157U 25112M   25170.55584099  .00052391  00000+0  95782-3 0  9997
2 64157  97.6038 220.2880 0001473  87.4403 272.7016 15.49212068  3591
STARLINK-34166          
1 64158U 25112N   25170.58335648  .00089019  00000+0  22606-2 0  9996
2 64158  97.6040 220.2883 0001895  82.3493   8.4789 15.39310930  4698
STARLINK-34344          
1 64159U 25112P   25170.58335648 -.00951316  00000+0 -26103-1 0  9992
2 64159  97.6041 220.3082 0001319  99.0975  35.5609 15.39974704  4746
STARLINK-34339          
1 64160U 25112Q   25170.10301129  .00043965  00000+0  80500-3 0  9992
2 64160  97.6038 219.8117 0001436  87.4702 272.6713 15.49209421  3528
STARLINK-34341          
1 64161U 25112R   25170.10232315  .00048555  00000+0  88814-3 0  9999
2 64161  97.6038 219.8128 0001504  93.7863 266.3559 15.49215449  3520
STARLINK-34317          
1 64162U 25112S   25170.58335648  .00070647  00000+0  17990-2 0  9998
2 64162  97.6036 220.2698 0001531  97.4089 311.5331 15.39308407  4852
STARLINK-34340          
1 64163U 25112T   25170.58335648 -.02130096  00000+0 -54017-1 0  9998
2 64163  97.6044 220.3234 0001901  78.6326  74.4511 15.43353889  4804
STARLINK-34263          
1 64164U 25112U   25170.10127790  .00026143  00000+0  48064-3 0  9994
2 64164  97.6039 219.8154 0001955  91.0385 269.1090 15.49199081  3527
STARLINK-33793          
1 64165U 25112V   25170.10094663  .00037983  00000+0  69594-3 0  9992
2 64165  97.6038 219.8156 0001438  92.3498 267.7917 15.49221590  3527
STARLINK-34313          
1 64166U 25112W   25170.10025882  .00033563  00000+0  61549-3 0  9992
2 64166  97.6038 219.8171 0001439  90.1855 269.9560 15.49222843  3529
STARLINK-34309          
1 64167U 25112X   25170.09991520  .00033120  00000+0  60742-3 0  9995
2 64167  97.6038 219.8176 0001526  92.1924 267.9501 15.49222134  3527
STARLINK-34303          
1 64168U 25112Y   25170.55171495  .00050504  00000+0  92348-3 0  9990
2 64168  97.6040 220.2953 0001455  87.9097 272.2320 15.49215765  3591
STARLINK-34175          
1 64169U 25112Z   25170.58335648  .00074853  00000+0  19045-2 0  9991
2 64169  97.6041 220.2985 0001883  86.4818  26.4445 15.39314587  4744
STARLINK-34177          
1 64170U 25113A   25170.58335648 -.00448392  00000+0 -84778-2 0  9994
2 64170  53.1598 235.5813 0001632  83.3124 123.8072 15.49464981  4795
STARLINK-34228          
1 64171U 25113B   25170.58335648  .00070146  00000+0  12596-2 0  9990
2 64171  53.1596 235.5781 0001649  79.9476 129.1559 15.49272085  4798
STARLINK-34233          
1 64172U 25113C   25170.58335648  .00072734  00000+0  13056-2 0  9998
2 64172  53.1596 235.5735 0001280  93.5257 117.4630 15.49266836  4795
STARLINK-34172          
1 64173U 25113D   25170.58335648  .00074272  00000+0  13328-2 0  9990
2 64173  53.1594 235.5696 0001495  81.2807 131.6236 15.49266099  4750
STARLINK-34202          
1 64174U 25113E   25170.58335648  .00075633  00000+0  13567-2 0  9998
2 64174  53.1594 235.5658 0001412  96.0412 118.7690 15.49268922  4795
STARLINK-34231          
1 64175U 25113F   25170.58335648  .00074007  00000+0  13278-2 0  9992
2 64175  53.1593 235.5579 0001368  89.4762 129.1620 15.49272763  4798
STARLINK-34191          
1 64176U 25113G   25170.58335648  .00078217  00000+0  14027-2 0  9993
2 64176  53.1597 235.5624 0001594  80.8783 135.8640 15.49260980  4797
STARLINK-34164          
1 64177U 25113H   25170.58335648 -.00015768  00000+0 -27599-3 0  9997
2 64177  53.1597 235.5531 0001379  95.4650 125.1028 15.49311555  4798
STARLINK-34227          
1 64178U 25113J   25170.58335648  .00075816  00000+0  13602-2 0  9995
2 64178  53.1596 235.5451 0001269  90.3851 134.0236 15.49263550  4795
STARLINK-34194          
1 64179U 25113K   25170.58335648  .00077616  00000+0  13921-2 0  9990
2 64179  53.1596 235.5499 0001652  83.1455 139.3501 15.49260793  4793
STARLINK-34000          
1 64180U 25113L   25170.58335648  .00074850  00000+0  13431-2 0  9995
2 64180  53.1597 235.5418 0001428  84.2568 142.0696 15.49264094  4755
